#dP2022 10  7  0  0  0.00000000      96 __u+U ITR14 FIT  IAC
## 2230 432000.00000000   900.00000000 59859 0.0000000000000
+  129   C01C02C03C04C05C06C07C08C09C10C11C12C13C14C16C19C20
+        C21C22C23C24C25C26C27C28C29C30C32C33C34C35C36C37C38
+        C39C40C41C42C43C44C45C46C59C60E01E02E03E04E05E07E08
+        E09E10E11E12E13E14E15E18E19E21E24E25E26E27E30E31E33
+        E34E36G01G02G03G04G05G06G07G08G09G10G11G12G13G14G15
+        G16G17G18G19G20G21G22G23G24G25G26G27G28G29G30G31G32
+        J02J03J04J07R01R02R03R04R05R06R07R08R09R10R11R12R13
+        R14R15R17R18R19R20R21R23R24R25  0  0  0  0  0  0  0
++        17 16 17 16 16  9  9  9  9  9  9  9  9  9  9  7  7
++         7  7  7  7  7  7  7  7  7  7  7  7  7  7  7  7  8
++         8  8  7  7  8  7  7  7 17 16  4  4  4  4  4  4  4
++         4  4  4  4  4  4  4  6  5  4  4  4  4  5  5  4  4
++         5  4  4  4  0  3  4  4  4  4  3  4  4  4  4  4  4
++         4  4  4  5  4  4  4  4  4  3  3  4  5  4  4  4  4
++         8  9  9 17  7  6  6  6  6 15  6  6  6 15  6  6  7
++         6  6  6  6  7  7  6 15  6  0  0  0  0  0  0  0  0
%c M  cc GPS ccc cccc cccc cccc cccc ccccc ccccc ccccc ccccc
%c cc cc ccc ccc cccc cccc cccc cccc ccccc ccccc ccccc ccccc
%f  0.0000000  0.000000000  0.00000000000  0.000000000000000
%f  0.0000000  0.000000000  0.00000000000  0.000000000000000
%i    0    0    0    0      0      0      0      0         0
%i    0    0    0    0      0      0      0      0         0
/* INFORMATION & ANALYSIS CENTER (IAC)            RAPID DATA
/* S/V CLOCKS ARE ALIGNED TO GNSS TIME                      
/* G:C1WC2W R:C1PC2P E:C1XC5X C:C2IC6I J:C1CC2S             
/* PCV:IGS14_2218 OL/AL:FES2004  NONE     YN ORB:CoN CLK:CoN
*  2022 10 07 11 15  0.00000000
PC01 -34365.053404  24448.760362   -766.518539    740.603236
PC02   4550.305302  41950.297836    -91.434832    428.205010
PC03 -14759.138693  39510.249088   -853.886627   -295.938346
PC04 -39645.879206  14427.404717   -452.397262   -219.732119
PC05  21958.062276  36042.042935    168.729305   -161.117086
PC06 -15134.392089  24799.717378  30488.814957    902.371168
PC07 -12031.150662  40420.253608   2644.204298   -243.417746
PC08    356.602743  27565.663894 -31842.124581    489.145129
PC09  -4049.079454  24949.121207  34061.383424   -841.752429
PC10  -6562.526063  41733.626156  -3756.619623     87.018461
PC11 -12183.603740 -11867.386023  22201.479325   -365.475777
PC12   8024.645838 -16602.922900  20977.438936   -491.309262
PC13   7543.752271  31847.456978 -26293.763772    100.492973
PC14  -7265.956593 -20763.628404 -17130.937033    704.402344
PC16 -19710.854812  23807.121101  28742.080863    131.570353
PC19  12607.680393  11902.946091  21883.735874   -821.737798
PC20   1851.386055  25530.435424  11145.644836    869.791942
PC21  10840.760389 -24704.757092   7107.377970   -552.457728
PC22  16585.054914  -9207.259300  20450.164358   -864.550351
PC23 -20963.568223  -1672.401791  18355.131732   -440.294519
PC24  -9139.126200 -22431.604433 -13888.172079   -497.744440
PC25 -22387.941267 -16141.858608   4195.728134      6.227694
PC26   6709.103000 -15458.361997 -22258.428311    -18.066623
PC27 -16774.730014  15989.002367 -15560.319213     32.248298
PC28 -26888.049421   7486.611697    252.030548     21.531134
PC29  21462.555299   5401.948548 -16999.407575     23.561750
PC30   2873.663758  15771.164709 -22845.982174      0.375259
PC32 -10694.599154  24756.667248  -7180.352067   -769.884169
PC33 -12658.094599 -11925.209579 -21826.580274   -851.003321
PC34  -4122.261018 -15442.130876  22867.041696     11.365256
PC35  26843.420956  -7500.493669  -1661.221454     30.836356
PC36  21797.722509  17034.940869  -3600.516778   -569.282002
PC37  -8300.239973  14336.944805  22471.540163   -431.089263
PC38  -7796.746619  24054.487508 -33690.188702     29.413421
PC39 -23852.367738  23951.842546  25098.096149     -0.585886
PC40 -18185.872921  37700.673523   5926.340024     -5.571209
PC41 -16596.110065   8689.234840 -20639.643315   -149.571344
PC42  -1080.360993 -25985.159857 -10061.852293   -430.035594
PC43 -20930.477928  -6064.573591  17417.054154     18.276770
PC44  16386.101183 -16616.782717  15310.424445     73.862476
PC45  20719.546806   1392.276536 -18624.221025     -6.849848
PC46  10670.855088  22486.062848  12583.224334     -4.724914
PC59 -32290.984381  27131.915344     72.447054     -0.026935
PC60   7264.125877  41514.456278  -1462.856773     -0.906836
PE01  16179.319994  19892.378050 -14774.708934   -542.222631
PE02 -16246.706413 -19747.567961  14927.449078    329.265798
PE03 -15809.204415  -7734.115450 -23810.089034   -607.328515
PE04  23813.258881 -10604.995724  14023.682045  -1131.460740
PE05   1688.065158 -21941.953212 -19800.741409   -136.857638
PE07 -17916.782245  23162.287320   4349.343078   -711.325078
PE08 -23733.033071  10775.726638 -14043.476577   -611.336466
PE09  17955.538780 -23142.023018  -4231.426725   -684.746116
PE10  22727.276677  -6424.730087  17824.662766   -481.994709
PE11  13274.624407 -12384.406429  23369.046749   1898.840005
PE12  27905.873253    130.560897   9874.733119   -209.247787
PE13 -14094.767933  11945.546531 -23125.469511    430.661936
PE14  -2938.019037  24503.502236 -21073.924040     20.846959
PE15 -27975.947213   -257.838636  -9673.207773    715.617476
PE18  -2570.037385 -16003.919379  17209.880098   -889.612671
PE19  13726.393620  10045.702951  24224.260739  -4330.838530
PE21   6919.052765  28712.719410   1947.948503   -762.039168
PE24   7797.728374 -21037.680435 -19325.360391   -877.921521
PE25  -6737.869170 -28740.655225  -2214.217264   -589.574009
PE26   8812.574630  17188.348659 -22422.900372  -1699.261833
PE27  -7031.139641  21801.170974  18750.506313   -409.647350
PE30 -16966.037345   1140.812778  24227.814149   -896.830148
PE31  16690.475323  -2144.005697 -24337.162989   -505.196506
PE33  25263.127580  12229.014685  -9394.257603   -454.465999
PE34 -25402.550117 -12098.090790   9218.075538     -8.248763
PE36  -7921.518133 -17026.219006  22882.929471   -442.358103
PG01  20496.716664  14212.359756  -9917.740809    271.460644
PG02 -17639.616752 -14487.463711  14092.000879   -643.315072
PG03      0.000000      0.000000      0.000000 999999.999999
PG04  12125.576351   9559.879954  21622.268907   -107.395106
PG05  -6507.515582 -25679.630241   -307.419826    -99.472499
PG06  14328.105312  -9279.523534  20428.737198    484.106673
PG07  25801.283198   5698.004491  -4197.379974    301.059350
PG08   3260.663316  16459.586337 -20541.003777    -87.777749
PG09  19996.507983  -1644.262198  17346.951254   -286.452351
PG10 -12523.002682   9923.224752 -21005.559397     -6.470492
PG11   2560.247836 -15160.742716  21661.686923    -23.225186
PG12 -10130.083374 -22097.460059  10558.744945   -289.417635
PG13   6357.319569 -18792.736158 -17739.044248    401.560953
PG14  14039.437539  -7742.877315 -21150.703237    -97.399078
PG15  -5803.095570 -16441.832347 -20407.079678    -22.898778
PG16   -845.967262  25721.279138   5220.043294   -525.816507
PG17  22601.067924 -12591.321080  -5707.680850    666.426862
PG18 -25463.038790  -4609.794779  -6312.465422     23.114208
PG19  19738.933087 -17080.059689   3865.044944    220.598834
PG20   1438.715795 -23176.451220  13108.927044    480.347044
PG21  14688.091143  15147.857227 -15956.734910    158.398835
PG22 -17248.823503  18928.906005   7107.212028    341.297833
PG23 -15526.465980  -1814.057670 -21499.453129     -0.819678
PG24 -18072.135938 -14726.808909 -13429.172816    108.890150
PG25 -15433.388462 -11767.582337  17960.446983    379.885401
PG26  -5678.113937  21128.664273  14741.430847    231.543904
PG27  -8481.308279  20585.910661 -14390.209180    201.821315
PG28  10006.216319 -17387.555960 -17026.382700    331.843002
PG29 -19290.302921   -826.223220  18232.201337   -557.718759
PG30  22116.584186  -3413.500461 -14405.213384   -537.224272
PG31 -13956.940378  10102.013817  20184.405588   -195.955109
PG32 -21147.151466  15436.519542  -3634.832861   -255.876331
PJ02 -25966.572738  24747.421400  27145.645726     -6.661625
PJ03 -33915.907797  17686.315160 -13131.359122     -2.548929
PJ04 -20827.707373  32258.317962 -12266.052319    111.674143
PJ07 -25384.838693  33671.373021     45.757450     -0.133923
PR01 -13468.931433  18572.591135 -11164.195309     15.884951
PR02  -6399.545683  23331.629587   8009.986090    -22.897541
PR03   4636.812964  13958.063203  20860.500325     65.046536
PR04  12604.353751  -2986.831857  21997.998209    160.295214
PR05  13940.170306 -18285.558897  11080.104190    100.841423
PR06   4963.912504 -23392.928007  -8933.322801    -73.756461
PR07  -4982.490030 -13416.082589 -21097.555527     42.161616
PR08 -12697.963363   3117.951432 -21845.660027    -67.540411
PR09  -5743.353785 -19714.323588 -15061.825734     80.724137
PR10 -15273.864753 -20476.358942   -360.668146    -86.696020
PR11 -17014.327959  -9631.508011  16387.928581     25.246840
PR12  -7975.335541   7723.242282  22994.027131     21.814882
PR13   4658.796851  19070.999236  16276.150285    -27.570885
PR14  15760.462431  20025.758805  -1300.571553     24.220717
PR15  16755.106012   8946.604157 -17004.221526     93.345640
PR17  14809.778432   7335.144439 -19401.609587    567.037145
PR18  24879.254821    231.877451  -5703.291648     45.960408
PR19  22782.406224  -5882.648651   9833.621089   -206.391103
PR20   5137.536479 -10418.645674  22722.378279    -79.752202
PR21 -16248.731933  -6778.225975  18475.664604   -339.647600
PR23 -19421.284452   8155.801325 -14397.342917    -57.611703
PR24  -4059.926578  11013.822623 -22631.626546    118.915833
PR25      0.000000      0.000000      0.000000 999999.999999
EOF
